      2.10          N: GNSS NAV DATA                        RINEX VERSION / TYPE
fic2rin                                 11/04/2024 00:59:02 PGM / RUN BY / DATE
                                                            END OF HEADER
14 24 11  3  2  0  0.0  .531467609107D-03  .829913915368D-11  .000000000000D+00
     .310000000000D+02  .937812500000D+02  .462947855065D-08 -.179146617559D+01
     .470504164696D-05  .497438898310D-02  .101737678051D-04  .515370335770D+04
     .720000000000D+04  .614672899246D-07 -.293073715500D+01 -.633299350739D-07
     .945231355491D+00  .175968750000D+03 -.285622137308D+01 -.792925885689D-08
     .535736601294D-11  .100000000000D+01  .233900000000D+04  .000000000000D+00
     .240000000000D+01  .000000000000D+00 -.791624188423D-08  .543000000000D+03
     .000000000000D+00  .400000000000D+01
11 24 11  3  2  0  0.0 -.748144462705D-03 -.216004991671D-11  .000000000000D+00
     .121000000000D+03 -.115437500000D+03  .449268713845D-08  .984333014038D+00
    -.590272247791D-05  .173639506102D-02  .402890145779D-05  .515356925011D+04
     .720000000000D+04  .745058059692D-08 -.811152679651D+00  .633299350739D-07
     .966114067809D+00  .305812500000D+03 -.243211136434D+01 -.827213028172D-08
    -.415017287136D-09  .100000000000D+01  .233900000000D+04  .000000000000D+00
     .240000000000D+01  .000000000000D+00 -.884756445885D-08  .377000000000D+03
     .000000000000D+00  .400000000000D+01
18 24 11  3  2  0  0.0 -.659709796309D-03 -.795807864051D-12  .000000000000D+00
     .890000000000D+02 -.107656250000D+03  .431017953628D-08 -.149106651028D+00
    -.581331551075D-05  .479051691946D-02  .322796404362D-05  .515372927284D+04
     .720000000000D+04  .614672899246D-07 -.838856544485D+00  .726431608200D-07
     .974331047519D+00  .323656250000D+03 -.295959958366D+01 -.821641367518D-08
    -.442161274935D-09  .100000000000D+01  .233900000000D+04  .000000000000D+00
     .240000000000D+01  .000000000000D+00 -.838190317154D-08  .857000000000D+03
     .000000000000D+00  .400000000000D+01
28 24 11  3  2  0  0.0 -.466743949801D-03 -.121644916362D-10  .000000000000D+00
     .134000000000D+03 -.248750000000D+02  .467162316328D-08 -.210141543072D+01
    -.128149986267D-05  .468746293336D-03  .658072531223D-05  .515374236298D+04
     .720000000000D+04 -.186264514923D-07  .225251289235D+01 -.931322574615D-08
     .961309553716D+00  .247468750000D+03  .140522987682D+01 -.802461997192D-08
    -.378587198248D-09  .100000000000D+01  .233900000000D+04  .000000000000D+00
     .240000000000D+01  .000000000000D+00 -.931322574615D-08  .902000000000D+03
     .000000000000D+00  .400000000000D+01
26 24 11  3  1 59 44.0  .393623486161D-04 -.118234311230D-10  .000000000000D+00
     .180000000000D+02  .681250000000D+02  .491591905347D-08 -.257036590473D+01
     .324100255966D-05  .948559993412D-02  .114142894745D-04  .515373013496D+04
     .718400000000D+04  .186264514923D-08 -.303755331961D+01 -.156462192535D-06
     .930736529095D+00  .144875000000D+03  .571814037321D+00 -.797068915405D-08
    -.935753263594D-10  .100000000000D+01  .233900000000D+04  .000000000000D+00
     .240000000000D+01  .000000000000D+00  .651925802231D-08  .180000000000D+02
     .300000000000D+02  .400000000000D+01
25 24 11  3  1 59 44.0  .499248504639D-03 -.227373675443D-12  .000000000000D+00
     .450000000000D+02  .936875000000D+02  .452161691492D-08 -.181850385386D+01
     .479631125927D-05  .119860196719D-01  .107511878014D-04  .515371905136D+04
     .718400000000D+04  .191852450371D-06 -.297212473862D+01 -.502914190292D-07
     .949966986624D+00  .163093750000D+03  .109581930324D+01 -.773353641855D-08
    -.350014579512D-10  .100000000000D+01  .233900000000D+04  .000000000000D+00
     .240000000000D+01  .000000000000D+00  .558793544769D-08  .450000000000D+02
     .300000000000D+02  .400000000000D+01
3  24 11  3  2  0  0.0  .589089933783D-03  .109139364213D-10  .000000000000D+00
     .340000000000D+02 -.591250000000D+02  .360157859163D-08 -.150509159953D+01
    -.317953526974D-05  .566424930003D-02  .113733112812D-04  .515363789177D+04
     .720000000000D+04  .141561031342D-06  .194640757443D+00  .968575477600D-07
     .987079566660D+00  .175031250000D+03  .116184295396D+01 -.743888128784D-08
     .140005831805D-09  .100000000000D+01  .233900000000D+04  .000000000000D+00
     .340000000000D+01  .000000000000D+00  .139698386192D-08  .340000000000D+02
     .300000000000D+02  .400000000000D+01
8  24 11  3  2  0  0.0  .402884092182D-03  .108002495836D-10  .000000000000D+00
     .210000000000D+02  .930937500000D+02  .504020994498D-08  .187558735034D+01
     .493973493576D-05  .988478423096D-02  .259280204773D-05  .515370889282D+04
     .720000000000D+04 -.197440385818D-06 -.194264272550D+01  .236555933952D-06
     .950558698951D+00  .325281250000D+03  .374649424349D+00 -.853821279369D-08
     .187150652719D-09  .100000000000D+01  .233900000000D+04  .000000000000D+00
     .240000000000D+01  .000000000000D+00  .465661287308D-08  .210000000000D+02
     .300000000000D+02  .400000000000D+01
6  24 11  3  2  0  0.0 -.853459350765D-04 -.285353962681D-10  .000000000000D+00
     .930000000000D+02 -.110937500000D+03  .395445043302D-08 -.329089888029D-01
    -.576302409172D-05  .320794631261D-02  .431016087532D-05  .515372405624D+04
     .720000000000D+04 -.372529029846D-07 -.840664714157D+00 -.931322574615D-08
     .989453843204D+00  .313812500000D+03 -.769328710497D+00 -.800426198107D-08
    -.397873715894D-09  .100000000000D+01  .233900000000D+04  .000000000000D+00
     .240000000000D+01  .000000000000D+00  .372529029846D-08  .930000000000D+02
     .300000000000D+02  .400000000000D+01
10 24 11  3  2  0  0.0 -.181402545422D-03 -.139834810398D-10  .000000000000D+00
     .530000000000D+02 -.750937500000D+02  .347050170318D-08 -.244861432522D+01
    -.392086803913D-05  .990244594868D-02  .110026448965D-04  .515368776703D+04
     .720000000000D+04  .335276126862D-07  .192103936071D+00 -.838190317154D-07
     .986715876448D+00  .180156250000D+03 -.236688370052D+01 -.722887254013D-08
     .287154818294D-09  .100000000000D+01  .233900000000D+04  .000000000000D+00
     .240000000000D+01  .000000000000D+00  .232830643654D-08  .530000000000D+02
     .300000000000D+02  .400000000000D+01
9  24 11  3  2  0  0.0  .426508951932D-03  .168256519828D-10  .000000000000D+00
     .390000000000D+02  .240312500000D+02  .468198073758D-08  .239202378532D+01
     .135041773319D-05  .319684797432D-02  .606477260590D-05  .515356216621D+04
     .720000000000D+04 -.149011611938D-07  .121069528920D+01  .670552253723D-07
     .959408402434D+00  .261031250000D+03  .200923922860D+01 -.798640409436D-08
     .431089385175D-09  .100000000000D+01  .233900000000D+04  .000000000000D+00
     .240000000000D+01  .000000000000D+00  .465661287308D-09  .390000000000D+02
     .300000000000D+02  .400000000000D+01
27 24 11  3  2  0  0.0 -.347406603396D-04  .000000000000D+00  .000000000000D+00
     .780000000000D+02  .957500000000D+02  .483984445609D-08  .193276402445D+01
     .482425093651D-05  .127760790056D-01  .268220901489D-05  .515368542480D+04
     .720000000000D+04 -.365078449249D-06 -.191477892422D+01 -.100582838058D-06
     .959583463989D+00  .327687500000D+03  .798847288636D+00 -.836856286995D-08
     .249296098469D-09  .100000000000D+01  .233900000000D+04  .000000000000D+00
     .240000000000D+01  .000000000000D+00  .186264514923D-08  .780000000000D+02
     .300000000000D+02  .400000000000D+01
24 24 11  3  2  0  0.0 -.482251867652D-03  .181898940355D-11  .000000000000D+00
     .910000000000D+02 -.197187500000D+02  .546522764867D-08 -.252561585804D-01
    -.100769102573D-05  .162361939438D-01  .638142228127D-05  .515368564224D+04
     .720000000000D+04 -.689178705215D-07  .218394007469D+01  .273808836937D-06
     .933930203610D+00  .246968750000D+03  .102610292105D+01 -.862250201896D-08
    -.356443418728D-09  .100000000000D+01  .233900000000D+04  .000000000000D+00
     .240000000000D+01  .000000000000D+00  .232830643654D-08  .910000000000D+02
     .300000000000D+02  .400000000000D+01
32 24 11  3  2  0  0.0 -.578899867833D-03  .500222085975D-11  .000000000000D+00
     .850000000000D+02  .185937500000D+02  .449768734673D-08  .256451392081D+01
     .987201929092D-06  .797818065621D-02  .649131834507D-05  .515373911667D+04
     .720000000000D+04  .763684511185D-07  .122594839431D+01 -.139698386192D-06
     .962726489354D+00  .253500000000D+03 -.213433838454D+01 -.781389690874D-08
     .511092717635D-09  .100000000000D+01  .233900000000D+04  .000000000000D+00
     .240000000000D+01  .000000000000D+00  .931322574615D-09  .850000000000D+02
     .300000000000D+02  .400000000000D+01
30 24 11  3  2  0  0.0 -.289774499834D-03  .761701812735D-11  .000000000000D+00
     .105000000000D+03 -.234687500000D+02  .522021744301D-08 -.105831285592D+01
    -.114180147648D-05  .713667878881D-02  .690668821335D-05  .515377902603D+04
     .720000000000D+04  .178813934326D-06  .228200637121D+01  .856816768646D-07
     .935433407528D+00  .228750000000D+03 -.246156964246D+01 -.828927385296D-08
    -.398230873629D-09  .100000000000D+01  .233900000000D+04  .000000000000D+00
     .240000000000D+01  .000000000000D+00  .372529029846D-08  .105000000000D+03
     .300000000000D+02  .400000000000D+01
27 24 11  3  1 59 44.0 -.347411260009D-04  .000000000000D+00  .000000000000D+00
     .000000000000D+00  .957500000000D+02  .484020161383D-08  .193043000156D+01
     .482425093651D-05  .127760812175D-01  .268220901489D-05  .515368542290D+04
     .718400000000D+04 -.365078449249D-06 -.191477877061D+01 -.100582838058D-06
     .959583456674D+00  .327687500000D+03  .798847607552D+00 -.836856286995D-08
     .248938940735D-09  .100000000000D+01  .233900000000D+04  .000000000000D+00
     .240000000000D+01  .000000000000D+00  .186264514923D-08  .000000000000D+00
     .129000000000D+04  .400000000000D+01
